OBJECT_NAME,OBJECT_ID,EPOCH,MEAN_MOTION,ECCENTRICITY,INCLINATION,RA_OF_ASC_NODE,ARG_OF_PERICENTER,MEAN_ANOMALY,EPHEMERIS_TYPE,CLASSIFICATION_TYPE,NORAD_CAT_ID,ELEMENT_SET_NO,REV_AT_EPOCH,BSTAR,MEAN_MOTION_DOT,MEAN_MOTION_DDOT
KUIPER-00605,2026-118X,2026-06-08T04:00:05.000256,15.36880925,.0007803,51.8658,96.9214,132.5589,256.1390,0,U,69288,999,230,.62218E-3,.22479E-3,0
KUIPER-00606,2026-118Y,2026-06-08T04:00:05.000256,15.37570608,.0004799,51.8694,96.8704,120.2893,292.2516,0,U,69289,999,215,.59206E-3,.21847E-3,0
KUIPER-00607,2026-118Z,2026-06-08T04:00:05.000256,15.37256667,.0006371,51.8679,96.8937,125.2345,276.6759,0,U,69290,999,211,.56569E-3,.20644E-3,0
KUIPER-00608,2026-118AA,2026-06-08T04:00:05.000256,15.36027809,.0009843,51.8599,96.9595,145.2293,224.7562,0,U,69291,999,208,.6483E-3,.22811E-3,0
KUIPER-00610,2026-118AB,2026-06-08T04:00:05.000256,15.38118730,.0002896,51.8720,96.8291,102.1566,327.8842,0,U,69292,999,200,.60439E-3,.22714E-3,0
KUIPER-00613,2026-118AC,2026-06-08T04:00:05.000256,15.35294499,.0010326,51.8623,96.9859,155.0617,201.9378,0,U,69293,999,130,.61186E-3,.20999E-3,0
KUIPER-00618,2026-118AD,2026-06-08T04:00:05.000256,15.38451310,.0002107,51.8719,96.8011,66.3021,16.8902,0,U,69294,999,133,.57164E-3,.21695E-3,0
KUIPER-00620,2026-118AE,2026-06-08T04:00:05.000256,15.38196980,.0003022,51.8715,96.8249,89.5316,343.3752,0,U,69295,999,254,.57536E-3,.21657E-3,0
STARLINK-37501,2026-119A,2026-06-08T04:00:05.000256,15.79990426,.0000681,97.2834,184.4888,114.0359,307.6664,0,U,69296,999,244,-.50541E-3,-.92391E-3,0
STARLINK-37496,2026-119B,2026-06-08T04:00:05.000256,15.80084868,.0000486,97.2837,184.4875,122.9962,295.9227,0,U,69297,999,244,-.10472E-2,-.189978E-2,0
STARLINK-37519,2026-119C,2026-06-08T04:00:05.000256,15.80835623,.0001386,97.2834,184.4937,64.7333,9.3994,0,U,69298,999,244,-.46269E-3,-.87962E-3,0
STARLINK-37455,2026-119D,2026-06-08T04:00:05.000256,15.79997352,.0001731,97.2834,184.4913,63.0547,5.5808,0,U,69299,999,244,-.74241E-3,-.135052E-2,0
STARLINK-37456,2026-119E,2026-06-08T04:00:05.000256,15.80879456,.0000665,97.2830,184.4950,88.0284,350.5554,0,U,69300,999,244,-.73896E-3,-.13984E-2,0
STARLINK-37630,2026-119F,2026-06-08T04:00:05.000256,15.80889889,.0000649,97.2835,184.4963,106.4135,334.7529,0,U,69301,999,259,-.73503E-3,-.139173E-2,0
STARLINK-37804,2026-119G,2026-06-08T04:00:05.000256,15.80845811,.0000884,97.2835,184.4972,146.9104,295.9753,0,U,69302,999,259,-.26635E-3,-.5093E-3,0
STARLINK-37730,2026-119H,2026-06-08T04:00:05.000256,15.80916978,.0000524,97.2830,184.5008,59.8932,31.3830,0,U,69303,999,259,-.85999E-3,-.162576E-2,0
STARLINK-37731,2026-119J,2026-06-08T04:00:05.000256,15.80886830,.0001489,97.2832,184.5010,100.8341,351.2292,0,U,69304,999,260,-.76681E-3,-.145083E-2,0
STARLINK-37734,2026-119K,2026-06-08T04:00:05.000256,15.80912770,.0000632,97.2831,184.5031,113.1381,344.1193,0,U,69305,999,260,-.95004E-3,-.179213E-2,0
STARLINK-37701,2026-119L,2026-06-08T04:00:05.000256,15.80911678,.000059,97.2831,184.5033,82.9204,15.8717,0,U,69306,999,260,-.91993E-3,-.173637E-2,0
STARLINK-37732,2026-119M,2026-06-08T04:00:05.000256,15.80868938,.0001475,97.2834,184.5054,88.7545,12.4331,0,U,69307,999,260,-.41559E-3,-.79223E-3,0
STARLINK-37689,2026-119N,2026-06-08T04:00:05.000256,15.80846407,.0000771,97.2832,184.5078,91.8126,16.1110,0,U,69308,999,260,-.10943E-3,-.21081E-3,0
STARLINK-37619,2026-119P,2026-06-08T04:00:05.000256,15.80861439,.0001353,97.2832,184.5091,83.5229,27.3849,0,U,69309,999,260,-.33335E-3,-.63664E-3,0
STARLINK-37794,2026-119Q,2026-06-08T04:00:05.000256,15.80885360,.0000593,97.2830,184.5146,107.8241,15.7799,0,U,69310,999,260,-.73355E-3,-.138868E-2,0
STARLINK-37795,2026-119R,2026-06-08T04:00:05.000256,15.80870617,.0001412,97.2831,184.5154,84.3036,41.4064,0,U,69311,999,260,-.71939E-3,-.136155E-2,0
STARLINK-37790,2026-119S,2026-06-08T04:00:05.000256,15.80863906,.0001109,97.2829,184.5174,94.5005,36.5550,0,U,69312,999,260,-.60632E-3,-.115014E-2,0
STARLINK-37676,2026-119T,2026-06-08T04:00:05.000256,15.81822190,.0001187,97.2829,184.5227,66.4986,75.5436,0,U,69313,999,260,-.78083E-2,-.1370146E-1,0
STARLINK-37617,2026-119U,2026-06-08T04:00:05.000256,15.82246206,.0001782,97.2830,184.5249,77.6490,69.0436,0,U,69314,999,260,-.10294E-1,-.1849769E-1,0
STARLINK-37627,2026-119V,2026-06-08T04:00:05.000256,15.81845960,.0000967,97.2831,184.5258,89.2224,59.5493,0,U,69315,999,260,-.8006E-2,-.1429235E-1,0
STARLINK-37738,2026-119W,2026-06-08T04:00:05.000256,15.80858957,.0001705,97.2830,184.5198,86.6610,49.8520,0,U,69316,999,260,-.27972E-3,-.53501E-3,0
STARLINK-37799,2026-119X,2026-06-08T04:00:05.000256,15.80767281,.0001341,97.2829,184.5235,108.6361,36.6603,0,U,69317,999,255,.27671E-3,.53067E-3,0
