KUIPER-00605            
1 69288U 26118X   26159.16672454  .00022479  00000+0  62218-3 0  9994
2 69288  51.8658  96.9214 0007803 132.5589 256.1390 15.36880925  2308
KUIPER-00606            
1 69289U 26118Y   26159.16672454  .00021847  00000+0  59206-3 0  9996
2 69289  51.8694  96.8704 0004799 120.2893 292.2516 15.37570608  2154
KUIPER-00607            
1 69290U 26118Z   26159.16672454  .00020644  00000+0  56569-3 0  9991
2 69290  51.8679  96.8937 0006371 125.2345 276.6759 15.37256667  2119
KUIPER-00608            
1 69291U 26118AA  26159.16672454  .00022811  00000+0  64830-3 0  9990
2 69291  51.8599  96.9595 0009843 145.2293 224.7562 15.36027809  2088
KUIPER-00610            
1 69292U 26118AB  26159.16672454  .00022714  00000+0  60439-3 0  9994
2 69292  51.8720  96.8291 0002896 102.1566 327.8842 15.38118730  2007
KUIPER-00613            
1 69293U 26118AC  26159.16672454  .00020999  00000+0  61186-3 0  9998
2 69293  51.8623  96.9859 0010326 155.0617 201.9378 15.35294499  1304
KUIPER-00618            
1 69294U 26118AD  26159.16672454  .00021695  00000+0  57164-3 0  9994
2 69294  51.8719  96.8011 0002107  66.3021  16.8902 15.38451310  1330
KUIPER-00620            
1 69295U 26118AE  26159.16672454  .00021657  00000+0  57536-3 0  9996
2 69295  51.8715  96.8249 0003022  89.5316 343.3752 15.38196980  2545
STARLINK-37501          
1 69296U 26119A   26159.16672454 -.00092391  00000+0 -50541-3 0  9992
2 69296  97.2834 184.4888 0000681 114.0359 307.6664 15.79990426  2440
STARLINK-37496          
1 69297U 26119B   26159.16672454 -.00189978  00000+0 -10472-2 0  9999
2 69297  97.2837 184.4875 0000486 122.9962 295.9227 15.80084868  2441
STARLINK-37519          
1 69298U 26119C   26159.16672454 -.00087962  00000+0 -46269-3 0  9994
2 69298  97.2834 184.4937 0001386  64.7333   9.3994 15.80835623  2444
STARLINK-37455          
1 69299U 26119D   26159.16672454 -.00135052  00000+0 -74241-3 0  9990
2 69299  97.2834 184.4913 0001731  63.0547   5.5808 15.79997352  2440
STARLINK-37456          
1 69300U 26119E   26159.16672454 -.00139840  00000+0 -73896-3 0  9997
2 69300  97.2830 184.4950 0000665  88.0284 350.5554 15.80879456  2447
STARLINK-37630          
1 69301U 26119F   26159.16672454 -.00139173  00000+0 -73503-3 0  9992
2 69301  97.2835 184.4963 0000649 106.4135 334.7529 15.80889889  2592
STARLINK-37804          
1 69302U 26119G   26159.16672454 -.00050930  00000+0 -26635-3 0  9990
2 69302  97.2835 184.4972 0000884 146.9104 295.9753 15.80845811  2593
STARLINK-37730          
1 69303U 26119H   26159.16672454 -.00162576  00000+0 -85999-3 0  9999
2 69303  97.2830 184.5008 0000524  59.8932  31.3830 15.80916978  2593
STARLINK-37731          
1 69304U 26119J   26159.16672454 -.00145083  00000+0 -76681-3 0  9992
2 69304  97.2832 184.5010 0001489 100.8341 351.2292 15.80886830  2602
STARLINK-37734          
1 69305U 26119K   26159.16672454 -.00179213  00000+0 -95004-3 0  9995
2 69305  97.2831 184.5031 0000632 113.1381 344.1193 15.80912770  2609
STARLINK-37701          
1 69306U 26119L   26159.16672454 -.00173637  00000+0 -91993-3 0  9993
2 69306  97.2831 184.5033 0000590  82.9204  15.8717 15.80911678  2602
STARLINK-37732          
1 69307U 26119M   26159.16672454 -.00079223  00000+0 -41559-3 0  9993
2 69307  97.2834 184.5054 0001475  88.7545  12.4331 15.80868938  2609
STARLINK-37689          
1 69308U 26119N   26159.16672454 -.00021081  00000+0 -10943-3 0  9996
2 69308  97.2832 184.5078 0000771  91.8126  16.1110 15.80846407  2605
STARLINK-37619          
1 69309U 26119P   26159.16672454 -.00063664  00000+0 -33335-3 0  9990
2 69309  97.2832 184.5091 0001353  83.5229  27.3849 15.80861439  2605
STARLINK-37794          
1 69310U 26119Q   26159.16672454 -.00138868  00000+0 -73355-3 0  9997
2 69310  97.2830 184.5146 0000593 107.8241  15.7799 15.80885360  2609
STARLINK-37795          
1 69311U 26119R   26159.16672454 -.00136155  00000+0 -71939-3 0  9991
2 69311  97.2831 184.5154 0001412  84.3036  41.4064 15.80870617  2602
STARLINK-37790          
1 69312U 26119S   26159.16672454 -.00115014  00000+0 -60632-3 0  9991
2 69312  97.2829 184.5174 0001109  94.5005  36.5550 15.80863906  2602
STARLINK-37676          
1 69313U 26119T   26159.16672454 -.01370146  00000+0 -78083-2 0  9990
2 69313  97.2829 184.5227 0001187  66.4986  75.5436 15.81822190  2601
STARLINK-37617          
1 69314U 26119U   26159.16672454 -.01849769  00000+0 -10294-1 0  9992
2 69314  97.2830 184.5249 0001782  77.6490  69.0436 15.82246206  2600
STARLINK-37627          
1 69315U 26119V   26159.16672454 -.01429235  00000+0 -80060-2 0  9994
2 69315  97.2831 184.5258 0000967  89.2224  59.5493 15.81845960  2608
STARLINK-37738          
1 69316U 26119W   26159.16672454 -.00053501  00000+0 -27972-3 0  9997
2 69316  97.2830 184.5198 0001705  86.6610  49.8520 15.80858957  2604
STARLINK-37799          
1 69317U 26119X   26159.16672454  .00053067  00000+0  27671-3 0  9999
2 69317  97.2829 184.5235 0001341 108.6361  36.6603 15.80767281  2558
